{"type": "FeatureCollection", "features": [ {"type": "Feature", "properties": {"norad_id": 28659, "name": "DIRECTV 8", "group": "intelsat", "lat": -0.018160158426774146, "lon": -109.18177458720757, "alt_km": 35774.049546649236, "timestamp": "2025-12-15T19:00:45.013917+00:00", "meta": {"OBJECT_NAME": "DIRECTV 8", "OBJECT_ID": "2005-019A", "EPOCH": "2025-12-14T09:56:38.487840", "MEAN_MOTION": 1.00272293, "ECCENTRICITY": 0.00029444, "INCLINATION": 0.0271, "RA_OF_ASC_NODE": 73.128, "ARG_OF_PERICENTER": 196.2382, "MEAN_ANOMALY": 204.0852, "EPHEMERIS_TYPE": 0, "CLASSIFICATION_TYPE": "U", "NORAD_CAT_ID": 28659, "ELEMENT_SET_NO": 999, "REV_AT_EPOCH": 7522, "BSTAR": 0, "MEAN_MOTION_DOT": 1.9e-07, "MEAN_MOTION_DDOT": 0}, "tle": {"line1": "1 28659U 05019A   25348.41433435  .00000019  00000+0  00000+0 0  9992", "line2": "2 28659   0.0271  73.1280 0002944 196.2382 204.0852  1.00272293 75226"}}, "geometry": {"type": "Point", "coordinates": [-109.18177458720757, -0.018160158426774146]}}, {"type": "Feature", "properties": {"norad_id": 28702, "name": "GALAXY 28 (G-28)", "group": "intelsat", "lat": -0.9844329367688538, "lon": -78.83394941036418, "alt_km": 35774.60422908875, "timestamp": "2025-12-15T19:00:45.013929+00:00", "meta": {"OBJECT_NAME": "GALAXY 28 (G-28)", "OBJECT_ID": "2005-022A", "EPOCH": "2025-12-14T21:33:29.427264", "MEAN_MOTION": 1.00271374, "ECCENTRICITY": 0.00028519, "INCLINATION": 2.8246, "RA_OF_ASC_NODE": 81.2568, "ARG_OF_PERICENTER": 187.2393, "MEAN_ANOMALY": 49.997, "EPHEMERIS_TYPE": 0, "CLASSIFICATION_TYPE": "U", "NORAD_CAT_ID": 28702, "ELEMENT_SET_NO": 999, "REV_AT_EPOCH": 5012, "BSTAR": 0, "MEAN_MOTION_DOT": -1.69e-06, "MEAN_MOTION_DDOT": 0}, "tle": {"line1": "1 28702U 05022A   25348.89825726 -.00000169  00000+0  00000+0 0  9992", "line2": "2 28702   2.8246  81.2568 0002851 187.2393  49.9970  1.00271374 50123"}}, "geometry": {"type": "Point", "coordinates": [-78.83394941036418, -0.9844329367688538]}}, {"type": "Feature", "properties": {"norad_id": 29236, "name": "GALAXY 16 (G-16)", "group": "intelsat", "lat": -0.006245686463208713, "lon": -89.12906120252883, "alt_km": 35775.52808494202, "timestamp": "2025-12-15T19:00:45.013941+00:00", "meta": {"OBJECT_NAME": "GALAXY 16 (G-16)", "OBJECT_ID": "2006-023A", "EPOCH": "2025-12-14T21:30:29.714400", "MEAN_MOTION": 1.00272377, "ECCENTRICITY": 0.00024685, "INCLINATION": 0.0467, "RA_OF_ASC_NODE": 146.4142, "ARG_OF_PERICENTER": 119.3284, "MEAN_ANOMALY": 41.6881, "EPHEMERIS_TYPE": 0, "CLASSIFICATION_TYPE": "U", "NORAD_CAT_ID": 29236, "ELEMENT_SET_NO": 999, "REV_AT_EPOCH": 7112, "BSTAR": 0, "MEAN_MOTION_DOT": -1.07e-06, "MEAN_MOTION_DDOT": 0}, "tle": {"line1": "1 29236U 06023A   25348.89617725 -.00000107  00000+0  00000+0 0  9997", "line2": "2 29236   0.0467 146.4142 0002468 119.3284  41.6881  1.00272377 71129"}}, "geometry": {"type": "Point", "coordinates": [-89.12906120252883, -0.006245686463208713]}}, {"type": "Feature", "properties": {"norad_id": 29494, "name": "DIRECTV 9S", "group": "intelsat", "lat": -0.20848378656308275, "lon": -91.34288572490554, "alt_km": 35773.78460560333, "timestamp": "2025-12-15T19:00:45.013952+00:00", "meta": {"OBJECT_NAME": "DIRECTV 9S", "OBJECT_ID": "2006-043A", "EPOCH": "2025-12-14T21:29:52.273824", "MEAN_MOTION": 1.00271938, "ECCENTRICITY": 0.00029041, "INCLINATION": 1.9457, "RA_OF_ASC_NODE": 83.1896, "ARG_OF_PERICENTER": 184.7766, "MEAN_ANOMALY": 37.0977, "EPHEMERIS_TYPE": 0, "CLASSIFICATION_TYPE": "U", "NORAD_CAT_ID": 29494, "ELEMENT_SET_NO": 999, "REV_AT_EPOCH": 4953, "BSTAR": 0, "MEAN_MOTION_DOT": -9.4e-07, "MEAN_MOTION_DDOT": 0}, "tle": {"line1": "1 29494U 06043A   25348.89574391 -.00000094  00000+0  00000+0 0  9991", "line2": "2 29494   1.9457  83.1896 0002904 184.7766  37.0977  1.00271938 49530"}}, "geometry": {"type": "Point", "coordinates": [-91.34288572490554, -0.20848378656308275]}}, {"type": "Feature", "properties": {"norad_id": 31307, "name": "GALAXY 17 (G-17)", "group": "intelsat", "lat": -0.9865577541704132, "lon": -75.08459074025829, "alt_km": 35766.77426563312, "timestamp": "2025-12-15T19:00:45.013964+00:00", "meta": {"OBJECT_NAME": "GALAXY 17 (G-17)", "OBJECT_ID": "2007-016B", "EPOCH": "2025-12-14T21:34:29.331840", "MEAN_MOTION": 1.00272267, "ECCENTRICITY": 0.0005675, "INCLINATION": 2.5056, "RA_OF_ASC_NODE": 82.2617, "ARG_OF_PERICENTER": 166.2186, "MEAN_ANOMALY": 73.9758, "EPHEMERIS_TYPE": 0, "CLASSIFICATION_TYPE": "U", "NORAD_CAT_ID": 31307, "ELEMENT_SET_NO": 999, "REV_AT_EPOCH": 6795, "BSTAR": 0, "MEAN_MOTION_DOT": -1.88e-06, "MEAN_MOTION_DDOT": 0}, "tle": {"line1": "1 31307U 07016B   25348.89895060 -.00000188  00000+0  00000+0 0  9991", "line2": "2 31307   2.5056  82.2617 0005675 166.2186  73.9758  1.00272267 67956"}}, "geometry": {"type": "Point", "coordinates": [-75.08459074025829, -0.9865577541704132]}}, {"type": "Feature", "properties": {"norad_id": 31862, "name": "DIRECTV 10", "group": "intelsat", "lat": 0.006140116251548686, "lon": -92.92089940676627, "alt_km": 35785.73025374427, "timestamp": "2025-12-15T19:00:45.013975+00:00", "meta": {"OBJECT_NAME": "DIRECTV 10", "OBJECT_ID": "2007-032A", "EPOCH": "2025-12-14T21:29:22.322400", "MEAN_MOTION": 1.00270231, "ECCENTRICITY": 3.809e-05, "INCLINATION": 0.0158, "RA_OF_ASC_NODE": 173.0837, "ARG_OF_PERICENTER": 33.5452, "MEAN_ANOMALY": 96.7341, "EPHEMERIS_TYPE": 0, "CLASSIFICATION_TYPE": "U", "NORAD_CAT_ID": 31862, "ELEMENT_SET_NO": 999, "REV_AT_EPOCH": 4374, "BSTAR": 0, "MEAN_MOTION_DOT": -8.3e-07, "MEAN_MOTION_DDOT": 0}, "tle": {"line1": "1 31862U 07032A   25348.89539725 -.00000083  00000+0  00000+0 0  9992", "line2": "2 31862   0.0158 173.0837 0000380  33.5452  96.7341  1.00270231 43742"}}, "geometry": {"type": "Point", "coordinates": [-92.92089940676627, 0.006140116251548686]}}, {"type": "Feature", "properties": {"norad_id": 32253, "name": "INTELSAT 11 (IS-11)", "group": "intelsat", "lat": 1.916847625087801, "lon": -137.8899198514411, "alt_km": 36098.24778326842, "timestamp": "2025-12-15T19:00:45.013987+00:00", "meta": {"OBJECT_NAME": "INTELSAT 11 (IS-11)", "OBJECT_ID": "2007-044B", "EPOCH": "2025-12-14T17:52:28.096032", "MEAN_MOTION": 0.99049636, "ECCENTRICITY": 0.00087376, "INCLINATION": 3.0854, "RA_OF_ASC_NODE": 80.9547, "ARG_OF_PERICENTER": 166.7777, "MEAN_ANOMALY": 320.8919, "EPHEMERIS_TYPE": 0, "CLASSIFICATION_TYPE": "U", "NORAD_CAT_ID": 32253, "ELEMENT_SET_NO": 999, "REV_AT_EPOCH": 6662, "BSTAR": 0, "MEAN_MOTION_DOT": 6.4e-07, "MEAN_MOTION_DDOT": 0}, "tle": {"line1": "1 32253U 07044B   25348.74476963  .00000064  00000+0  00000+0 0  9996", "line2": "2 32253   3.0854  80.9547 0008737 166.7777 320.8919  0.99049636 66624"}}, "geometry": {"type": "Point", "coordinates": [-137.8899198514411, 1.916847625087801]}}, {"type": "Feature", "properties": {"norad_id": 32388, "name": "HORIZONS-2", "group": "intelsat", "lat": -1.1811060574048702, "lon": -63.92024640467117, "alt_km": 35767.857721695415, "timestamp": "2025-12-15T19:00:45.013999+00:00", "meta": {"OBJECT_NAME": "HORIZONS-2", "OBJECT_ID": "2007-063B", "EPOCH": "2025-12-14T21:37:44.021280", "MEAN_MOTION": 1.00273662, "ECCENTRICITY": 0.00046397, "INCLINATION": 2.127, "RA_OF_ASC_NODE": 82.9437, "ARG_OF_PERICENTER": 189.2196, "MEAN_ANOMALY": 62.2823, "EPHEMERIS_TYPE": 0, "CLASSIFICATION_TYPE": "U", "NORAD_CAT_ID": 32388, "ELEMENT_SET_NO": 999, "REV_AT_EPOCH": 6596, "BSTAR": 0, "MEAN_MOTION_DOT": -2.35e-06, "MEAN_MOTION_DDOT": 0}, "tle": {"line1": "1 32388U 07063B   25348.90120395 -.00000235  00000+0  00000+0 0  9990", "line2": "2 32388   2.1270  82.9437 0004639 189.2196  62.2823  1.00273662 65965"}}, "geometry": {"type": "Point", "coordinates": [-63.92024640467117, -1.1811060574048702]}}, {"type": "Feature", "properties": {"norad_id": 32729, "name": "DIRECTV 11", "group": "intelsat", "lat": -0.011784202368134376, "lon": -89.31015681703582, "alt_km": 35786.31948912181, "timestamp": "2025-12-15T19:00:45.014011+00:00", "meta": {"OBJECT_NAME": "DIRECTV 11", "OBJECT_ID": "2008-013A", "EPOCH": "2025-12-14T19:47:32.076384", "MEAN_MOTION": 1.00271968, "ECCENTRICITY": 5.052e-05, "INCLINATION": 0.0429, "RA_OF_ASC_NODE": 161.019, "ARG_OF_PERICENTER": 12.4167, "MEAN_ANOMALY": 108.0014, "EPHEMERIS_TYPE": 0, "CLASSIFICATION_TYPE": "U", "NORAD_CAT_ID": 32729, "ELEMENT_SET_NO": 999, "REV_AT_EPOCH": 4374, "BSTAR": 0, "MEAN_MOTION_DOT": -1.06e-06, "MEAN_MOTION_DDOT": 0}, "tle": {"line1": "1 32729U 08013A   25348.82467681 -.00000106  00000+0  00000+0 0  9995", "line2": "2 32729   0.0429 161.0190 0000505  12.4167 108.0014  1.00271968 43745"}}, "geometry": {"type": "Point", "coordinates": [-89.31015681703582, -0.011784202368134376]}}, {"type": "Feature", "properties": {"norad_id": 32951, "name": "GALAXY 18 (G-18)", "group": "intelsat", "lat": -0.043702224219043594, "lon": -113.16647392693757, "alt_km": 35775.22828863962, "timestamp": "2025-12-15T19:00:45.014023+00:00", "meta": {"OBJECT_NAME": "GALAXY 18 (G-18)", "OBJECT_ID": "2008-024A", "EPOCH": "2025-12-14T21:23:37.872384", "MEAN_MOTION": 1.00271157, "ECCENTRICITY": 0.00028437, "INCLINATION": 0.0227, "RA_OF_ASC_NODE": 355.7402, "ARG_OF_PERICENTER": 275.3957, "MEAN_ANOMALY": 10.5563, "EPHEMERIS_TYPE": 0, "CLASSIFICATION_TYPE": "U", "NORAD_CAT_ID": 32951, "ELEMENT_SET_NO": 999, "REV_AT_EPOCH": 4400, "BSTAR": 0, "MEAN_MOTION_DOT": 0, "MEAN_MOTION_DDOT": 0}, "tle": {"line1": "1 32951U 08024A   25348.89141056  .00000000  00000+0  00000+0 0  9998", "line2": "2 32951   0.0227 355.7402 0002843 275.3957  10.5563  1.00271157 44006"}}, "geometry": {"type": "Point", "coordinates": [-113.16647392693757, -0.043702224219043594]}}]}